#aV2020 11 27  0  0  0.00000000     288 DD+AD WGS84 FIT  NGA
## 2133 432000.00000000   300.00000000 59180 0.0000000000000
+   32     1  2  3  4  5  6  7  8  9 10 11 12 13 14 15 16 17
+         18 19 20 21 22 23 24 25 26 27 28 29 30 31 32  0  0
+          0  0  0  0  0  0  0  0  0  0  0  0  0  0  0  0  0
+          0  0  0  0  0  0  0  0  0  0  0  0  0  0  0  0  0
+          0  0  0  0  0  0  0  0  0  0  0  0  0  0  0  0  0
++         2  2  2  2  2  2  2  2  2  2  2  2  2  2  2  2  2
++         2  2  2  2  2  2  2  2  2  2  2  2  2  2  2  0  0
++         0  0  0  0  0  0  0  0  0  0  0  0  0  0  0  0  0
++         0  0  0  0  0  0  0  0  0  0  0  0  0  0  0  0  0
++         0  0  0  0  0  0  0  0  0  0  0  0  0  0  0  0  0
%c cc cc ccc ccc cccc cccc cccc cccc ccccc ccccc ccccc ccccc
%c cc cc ccc ccc cccc cccc cccc cccc ccccc ccccc ccccc ccccc
%f  0.0000000  0.000000000  0.00000000000  0.000000000000000
%f  0.0000000  0.000000000  0.00000000000  0.000000000000000
%i    0    0    0    0      0      0      0      0         0
%i    0    0    0    0      0      0      0      0         0
/*      NGA, ST. LOUIS,MO.                                  
/*   EPHEMERIS COMPUTED FROM 2 DAYS OF DATA                 
/*   EPOCHA v5 SMOOTHER                                     
/*   G1762 IERS2010 SATAF SATAPC                            
*  2020 11 27  0  0  0.00000000
P  1  -1063.730038 -14996.973435 -22107.555824    803.154264                    
V  1  26575.397464  -6939.749131   3787.752915     -0.044076                    
P  2 -19233.026719  15130.735409  10955.778206   -547.425707                    
V  2 -12951.705513   2287.456376 -27558.996225     -0.046124                    
P  3 -10264.648755 -21462.945810 -11992.544001    -14.449402                    
V  3  12267.079687   8971.968814 -26643.136392     -0.100197                    
P  4   -371.436419 -24515.576112  10156.468202   -159.054559                    
V  4   6017.182576 -11706.027617 -28085.810639     -0.034999                    
P  5  -8550.876084  12796.504613  21483.239368    -26.886820                    
V  5 -20760.177273 -18309.589887   2803.903529     -0.009577                    
P  6 -25869.693004   5356.204329  -2884.023872     -2.463236                    
V  6   3008.844110  -3030.171407 -31921.033646     -0.012153                    
P  7 -17845.568305  -8564.666375  18260.506673   -422.328049                    
V  7  21226.156265  -7206.657975  17200.462659     -0.075843                    
P  8   5326.257104 -25844.740415  -1024.487115     -0.800833                    
V  8   3041.481663   -648.995047  32073.040170     -0.013832                    
P  9  -9647.642795 -16397.583712  18460.497439   -294.408991                    
V  9   6963.723112 -22615.100837 -16409.653233     -0.046075                    
P 10  21700.958802   8699.482228 -12754.528660     -2.257855                    
V 10  10326.030187  12683.299676  25769.579551     -0.090078                    
P 11   6150.668400 -21589.318771 -14922.174172    -97.590986                    
V 11  15065.236630 -10496.019744  21713.450801      0.105434                    
P 12   6368.886853  21660.662648 -14346.379808     34.915813                    
V 12 -13022.888063 -12128.225006 -24349.946643     -0.051781                    
P 13 -13303.470911  22012.331255   6244.420170     68.967923                    
V 13    548.957643  -8517.480405  30645.270196      0.038779                    
P 14  20680.947092  12603.290381 -10910.148252     53.812498                    
V 14   7058.780880  12169.755579  27447.034117      0.636564                    
P 15  -1854.337361  26224.913313  -2277.579750   -187.278768                    
V 15  -4430.347876   1940.679189  31068.774387      0.025905                    
P 16   9369.040263 -11622.480482  21710.717837   -242.076407                    
V 16  18698.864500  20981.463411   3573.804705     -0.053643                    
P 17 -15428.624398   2273.985017 -21059.558248    359.284303                    
V 17   7730.164663 -26616.356697  -8391.910783      0.050968                    
P 18  19004.386977   7260.124936  17098.107917    326.171337                    
V 18 -20584.337847   7023.136967  19833.384082      0.043916                    
P 19 -16702.699689   9033.957798 -18818.902587    -73.035337                    
V 19   6949.726578 -22253.169285 -17184.882514      0.050174                    
P 20  21977.106435  15145.292920   -961.979436    525.858624                    
V 20  -1067.734716   3390.386453  30993.173240     -0.001600                    
P 21   8258.332339 -16616.084637 -18125.719330     72.107022                    
V 21  23882.294207  -6571.263292  16624.960773      0.036221                    
P 22  -3641.226456 -19554.497853 -17478.735585   -724.184968                    
V 22  18927.083968  12548.420837 -17626.530511      0.056199                    
P 23  20939.653516  15999.542443  -3470.209836    104.697141                    
V 23   1370.490248   4956.920876  31360.067272      0.039114                    
P 24  -2497.443100  16901.389954 -20473.235699      5.884577                    
V 24 -24604.607680   7462.555755   9654.175657     -0.005231                    
P 25  17088.424905  20215.433101  -3796.316447     29.189767                    
V 25  -4924.231977  -1358.984232 -31153.623436      0.067807                    
P 26  18235.648001  -2337.246456  19217.923410      5.270836                    
V 26  17295.962349  17345.833051 -14024.790390      0.059738                    
P 27  12334.066372 -20918.843698  10184.280770    -22.324836                    
V 27   -948.213312  13415.130804  28632.588656     -0.082338                    
P 28 -20222.813899  -9186.291622 -13853.321443    650.564405                    
V 28 -10502.641848 -15521.800814  24778.789818     -0.047610                    
P 29   6519.037021  18380.902320  17973.962890   -244.467933                    
V 29  -8301.449226  21328.533305 -18805.755775     -0.075557                    
P 30 -24365.416548  -1931.097794  10706.863641   -342.454121                    
V 30  12373.760922  -6113.540320  26957.072308     -0.064970                    
P 31  26060.012231  -6314.990636   -526.323474    -83.950640                    
V 31     67.661684   2599.779433 -31358.210727     -0.023906                    
P 32  15890.679917  -2665.722848 -21000.107103      3.749305                    
V 32  -5595.323681  26336.665325  -7703.750331      0.030050                    
EOF
